{
  "type": "FeatureCollection",
  "features": [
    {
      "type": "Feature",
      "properties": {
        "norad_id": 34301,
        "name": "COSMOS 2251 DEB",
        "group": "cosmos-2251-debris",
        "lat": -62.53669059316048,
        "lon": -7.947049416220944,
        "alt_km": 614.6941191346577,
        "timestamp": "2025-12-26T21:25:53.403388+00:00",
        "meta_object_name": "COSMOS 2251 DEB",
        "meta_object_id": "1993-036MX",
        "meta_epoch": "2025-12-26T12:33:41.976864",
        "meta_mean_motion": 14.85255875,
        "meta_eccentricity": 0.00096777,
        "meta_inclination": 74.0061,
        "meta_ra_of_asc_node": 139.2942,
        "meta_arg_of_pericenter": 203.9823,
        "meta_mean_anomaly": 227.9901,
        "meta_ephemeris_type": 0,
        "meta_classification_type": "U",
        "meta_norad_cat_id": 34301,
        "meta_element_set_no": 999,
        "meta_rev_at_epoch": 88605,
        "meta_bstar": 0.0032937175,
        "meta_mean_motion_dot": 0.00028381,
        "meta_mean_motion_ddot": 0,
        "tle_line1": "1 34301U 93036MX  25360.52340251  .00028381  00000+0  32937-2 0  9997",
        "tle_line2": "2 34301  74.0061 139.2942 0009677 203.9823 227.9901 14.85255875886054"
      },
      "geometry": {
        "type": "Point",
        "coordinates": [
          -7.947049416220944,
          -62.53669059316048
        ]
      }
    },
    {
      "type": "Feature",
      "properties": {
        "norad_id": 34302,
        "name": "COSMOS 2251 DEB",
        "group": "cosmos-2251-debris",
        "lat": 2.625898437653914,
        "lon": -83.06375619107348,
        "alt_km": 800.4570316098625,
        "timestamp": "2025-12-26T21:25:53.403398+00:00",
        "meta_object_name": "COSMOS 2251 DEB",
        "meta_object_id": "1993-036MY",
        "meta_epoch": "2025-12-26T11:11:34.221984",
        "meta_mean_motion": 14.39382029,
        "meta_eccentricity": 0.00795544,
        "meta_inclination": 74.1784,
        "meta_ra_of_asc_node": 98.4618,
        "meta_arg_of_pericenter": 309.9121,
        "meta_mean_anomaly": 178.2236,
        "meta_ephemeris_type": 0,
        "meta_classification_type": "U",
        "meta_norad_cat_id": 34302,
        "meta_element_set_no": 999,
        "meta_rev_at_epoch": 87918,
        "meta_bstar": 0.00063023504,
        "meta_mean_motion_dot": 2.008e-05,
        "meta_mean_motion_ddot": 0,
        "tle_line1": "1 34302U 93036MY  25360.46636831  .00002008  00000+0  63024-3 0  9993",
        "tle_line2": "2 34302  74.1784  98.4618 0079554 309.9121 178.2236 14.39382029879189"
      },
      "geometry": {
        "type": "Point",
        "coordinates": [
          -83.06375619107348,
          2.625898437653914
        ]
      }
    },
    {
      "type": "Feature",
      "properties": {
        "norad_id": 34303,
        "name": "COSMOS 2251 DEB",
        "group": "cosmos-2251-debris",
        "lat": 50.98481169318577,
        "lon": -78.05520365339672,
        "alt_km": 613.9103774096857,
        "timestamp": "2025-12-26T21:25:53.403409+00:00",
        "meta_object_name": "COSMOS 2251 DEB",
        "meta_object_id": "1993-036MZ",
        "meta_epoch": "2025-12-26T12:08:15.408096",
        "meta_mean_motion": 14.5463915,
        "meta_eccentricity": 0.01355823,
        "meta_inclination": 74.0044,
        "meta_ra_of_asc_node": 261.9442,
        "meta_arg_of_pericenter": 36.8534,
        "meta_mean_anomaly": 149.6028,
        "meta_ephemeris_type": 0,
        "meta_classification_type": "U",
        "meta_norad_cat_id": 34303,
        "meta_element_set_no": 999,
        "meta_rev_at_epoch": 88162,
        "meta_bstar": 0.0015077295,
        "meta_mean_motion_dot": 7.264e-05,
        "meta_mean_motion_ddot": 0,
        "tle_line1": "1 34303U 93036MZ  25360.50573389  .00007264  00000+0  15077-2 0  9990",
        "tle_line2": "2 34303  74.0044 261.9442 0135582  36.8534 149.6028 14.54639150881628"
      },
      "geometry": {
        "type": "Point",
        "coordinates": [
          -78.05520365339672,
          50.98481169318577
        ]
      }
    },
    {
      "type": "Feature",
      "properties": {
        "norad_id": 34304,
        "name": "COSMOS 2251 DEB",
        "group": "cosmos-2251-debris",
        "lat": 37.45697433680708,
        "lon": 109.17388790108716,
        "alt_km": 852.0508914284019,
        "timestamp": "2025-12-26T21:25:53.403419+00:00",
        "meta_object_name": "COSMOS 2251 DEB",
        "meta_object_id": "1993-036NA",
        "meta_epoch": "2025-12-26T09:55:16.426848",
        "meta_mean_motion": 14.37993668,
        "meta_eccentricity": 0.01289292,
        "meta_inclination": 74.0139,
        "meta_ra_of_asc_node": 97.3712,
        "meta_arg_of_pericenter": 232.4251,
        "meta_mean_anomaly": 204.8321,
        "meta_ephemeris_type": 0,
        "meta_classification_type": "U",
        "meta_norad_cat_id": 34304,
        "meta_element_set_no": 999,
        "meta_rev_at_epoch": 87493,
        "meta_bstar": 0.0016922821,
        "meta_mean_motion_dot": 5.611e-05,
        "meta_mean_motion_ddot": 0,
        "tle_line1": "1 34304U 93036NA  25360.41338457  .00005611  00000+0  16923-2 0  9991",
        "tle_line2": "2 34304  74.0139  97.3712 0128929 232.4251 204.8321 14.37993668874936"
      },
      "geometry": {
        "type": "Point",
        "coordinates": [
          109.17388790108716,
          37.45697433680708
        ]
      }
    },
    {
      "type": "Feature",
      "properties": {
        "norad_id": 34307,
        "name": "COSMOS 2251 DEB",
        "group": "cosmos-2251-debris",
        "lat": -49.568461740410676,
        "lon": -89.20027726522349,
        "alt_km": 1349.7941362959964,
        "timestamp": "2025-12-26T21:25:53.403429+00:00",
        "meta_object_name": "COSMOS 2251 DEB",
        "meta_object_id": "1993-036ND",
        "meta_epoch": "2025-12-26T06:19:47.575776",
        "meta_mean_motion": 13.54342626,
        "meta_eccentricity": 0.03917524,
        "meta_inclination": 74.0541,
        "meta_ra_of_asc_node": 291.4151,
        "meta_arg_of_pericenter": 119.3704,
        "meta_mean_anomaly": 2.3521,
        "meta_ephemeris_type": 0,
        "meta_classification_type": "U",
        "meta_norad_cat_id": 34307,
        "meta_element_set_no": 999,
        "meta_rev_at_epoch": 83045,
        "meta_bstar": 0.00079796683,
        "meta_mean_motion_dot": 8.69e-06,
        "meta_mean_motion_ddot": 0,
        "tle_line1": "1 34307U 93036ND  25360.26374509  .00000869  00000+0  79797-3 0  9994",
        "tle_line2": "2 34307  74.0541 291.4151 0391752 119.3704   2.3521 13.54342626830454"
      },
      "geometry": {
        "type": "Point",
        "coordinates": [
          -89.20027726522349,
          -49.568461740410676
        ]
      }
    },
    {
      "type": "Feature",
      "properties": {
        "norad_id": 34313,
        "name": "COSMOS 2251 DEB",
        "group": "cosmos-2251-debris",
        "lat": -73.2349073436026,
        "lon": 168.31119090789346,
        "alt_km": 515.2615433648461,
        "timestamp": "2025-12-26T21:25:53.403439+00:00",
        "meta_object_name": "COSMOS 2251 DEB",
        "meta_object_id": "1993-036NK",
        "meta_epoch": "2025-12-26T04:29:26.748960",
        "meta_mean_motion": 15.21524827,
        "meta_eccentricity": 0.00121197,
        "meta_inclination": 73.9711,
        "meta_ra_of_asc_node": 277.1842,
        "meta_arg_of_pericenter": 60.7811,
        "meta_mean_anomaly": 299.4597,
        "meta_ephemeris_type": 0,
        "meta_classification_type": "U",
        "meta_norad_cat_id": 34313,
        "meta_element_set_no": 999,
        "meta_rev_at_epoch": 89269,
        "meta_bstar": 0.0042719672,
        "meta_mean_motion_dot": 0.00097673,
        "meta_mean_motion_ddot": 0,
        "tle_line1": "1 34313U 93036NK  25360.18711515  .00097673  00000+0  42720-2 0  9998",
        "tle_line2": "2 34313  73.9711 277.1842 0012119  60.7811 299.4597 15.21524827892698"
      },
      "geometry": {
        "type": "Point",
        "coordinates": [
          168.31119090789346,
          -73.2349073436026
        ]
      }
    },
    {
      "type": "Feature",
      "properties": {
        "norad_id": 34314,
        "name": "COSMOS 2251 DEB",
        "group": "cosmos-2251-debris",
        "lat": 73.94325809210336,
        "lon": 17.92065348687546,
        "alt_km": 795.3332614093315,
        "timestamp": "2025-12-26T21:25:53.403450+00:00",
        "meta_object_name": "COSMOS 2251 DEB",
        "meta_object_id": "1993-036NL",
        "meta_epoch": "2025-12-26T06:21:36.000000",
        "meta_mean_motion": 14.17457989,
        "meta_eccentricity": 0.01035779,
        "meta_inclination": 74.0062,
        "meta_ra_of_asc_node": 284.2467,
        "meta_arg_of_pericenter": 26.7338,
        "meta_mean_anomaly": 100.288,
        "meta_ephemeris_type": 0,
        "meta_classification_type": "U",
        "meta_norad_cat_id": 34314,
        "meta_element_set_no": 999,
        "meta_rev_at_epoch": 86849,
        "meta_bstar": 0.00059558164,
        "meta_mean_motion_dot": 1.248e-05,
        "meta_mean_motion_ddot": 0,
        "tle_line1": "1 34314U 93036NL  25360.26500000  .00001248  00000+0  59558-3 0  9994",
        "tle_line2": "2 34314  74.0062 284.2467 0103577  26.7338 100.2880 14.17457989868490"
      },
      "geometry": {
        "type": "Point",
        "coordinates": [
          17.92065348687546,
          73.94325809210336
        ]
      }
    }
  ]
}